[{"OBJECT_NAME":"STARLINK-2446","OBJECT_ID":"2021-018BK","EPOCH":"2026-03-09T21:50:56.098464","MEAN_MOTION":15.31042385,"ECCENTRICITY":0.00013745,"INCLINATION":53.1633,"RA_OF_ASC_NODE":244.8755,"ARG_OF_PERICENTER":91.3752,"MEAN_ANOMALY":268.7407,"EPHEMERIS_TYPE":0,"CLASSIFICATION_TYPE":"U","NORAD_CAT_ID":47844,"ELEMENT_SET_NO":999,"REV_AT_EPOCH":27671,"BSTAR":3.1842405e-5,"MEAN_MOTION_DOT":6.06e-6,"MEAN_MOTION_DDOT":0},{"OBJECT_NAME":"AUREOLE 2","OBJECT_ID":"1973-107A","EPOCH":"2026-03-09T19:32:26.968128","MEAN_MOTION":15.58296371,"ECCENTRICITY":0.01243366,"INCLINATION":73.8954,"RA_OF_ASC_NODE":41.4828,"ARG_OF_PERICENTER":3.3524,"MEAN_ANOMALY":356.8494,"EPHEMERIS_TYPE":0,"CLASSIFICATION_TYPE":"U","NORAD_CAT_ID":7003,"ELEMENT_SET_NO":999,"REV_AT_EPOCH":68892,"BSTAR":0.00079431495,"MEAN_MOTION_DOT":0.00087862,"MEAN_MOTION_DDOT":0}]
